satname,norad_id,inclination_deg,eccentricity,mean_motion_rev_per_day,perigee_km,apogee_km,l1,l2
STARLINK-1276,45368,53.0537,0.0001421,15.06406766,546.2067321169834,548.1749102837684,1 45368U 20019J   25286.59357389  .00000472  00000+0  50591-4 0  9996,2 45368  53.0537 106.9587 0001421  93.2155 266.8997 15.06406766307569
STARLINK-1277,45369,53.0535,0.0001439,15.06402971,546.2058959189644,548.1990086133264,1 45369U 20019K   25286.58628223  .00000546  00000+0  55539-4 0  9993,2 45369  53.0535 107.6196 0001439  87.4755 272.6399 15.06402971307556
STARLINK-1281,45370,53.0532,0.0001336,15.06400631,546.2843977058646,548.1348503238023,1 45370U 20019L   25286.58252098  .00002432  00000+0  18212-3 0  9990,2 45370  53.0532 107.0090 0001336  87.3513 272.7629 15.06400631307568
STARLINK-1300,45374,53.053,0.000145,15.06387531,546.2455928088038,548.2539549732328,1 45374U 20019Q   25286.60464788  .00003215  00000+0  23470-3 0  9990,2 45374  53.0530 106.9063 0001450  85.9843 274.1312 15.06387531307563
STARLINK-1302,45375,53.0535,0.0001319,15.06399086,546.3009053737733,548.1278130623341,1 45375U 20019R   25286.55303643  .00000271  00000+0  37069-4 0  9996,2 45375  53.0535 107.1407 0001319  88.2689 271.8451 15.06399086307557
STARLINK-1304,45376,53.052,0.0001384,15.06372309,546.3379481786724,548.2549081515881,1 45376U 20019S   25286.57148235 -.00005029  00000+0 -31921-3 0  9991,2 45376  53.0520 107.0571 0001384  88.3418 271.7729 15.06372309307552
STARLINK-1305,45377,53.0536,0.0002289,15.07932744,540.9337599887458,544.102035801001,1 45377U 20019T   25286.59641281  .00365774  00000+0  22383-1 0  9997,2 45377  53.0536 106.9343 0002289  59.4469 300.6746 15.07932744307563
STARLINK-1319,45379,53.0541,0.0001543,15.06403562,546.1320613448133,548.2692205408084,1 45379U 20019V   25286.58988803  .00000167  00000+0  30083-4 0  9993,2 45379  53.0541 106.9771 0001543  92.6511 267.4655 15.06403562307564
STARLINK-1266,45383,53.0531,0.0001496,15.06398009,546.1816270160962,548.2536931303903,1 45383U 20019Z   25286.19365141  .00000964  00000+0  83620-4 0  9999,2 45383  53.0531  88.7558 0001496  87.0474 273.0686 15.06398009307770
STARLINK-1267,45384,53.0542,0.0001277,15.06422721,546.2575641025942,548.0262803393289,1 45384U 20019AA  25286.57704674  .00003810  00000+0  27434-3 0  9993,2 45384  53.0542  87.6888 0001277  88.5246 271.5889 15.06422721307820
STARLINK-1272,45386,53.0531,0.000123,15.0640488,546.3447854485212,548.0484175144866,1 45386U 20019AC  25286.18627819  .00000526  00000+0  54226-4 0  9998,2 45386  53.0531  88.7873 0001230  94.9829 265.1301 15.06404880307771
STARLINK-1274,45387,53.0375,0.0006119,15.27343685,479.5580065825916,487.9555922142945,1 45387U 20019AD  25286.53780801  .00098221  00000+0  35832-2 0  9998,2 45387  53.0375  75.2314 0006119 158.0568 202.0693 15.27343685307998
STARLINK-1280,45388,53.0544,0.0001658,15.09819939,535.6032394260756,537.896215864962,1 45388U 20019AE  25286.50455312  .00364597  00000+0  21195-1 0  9990,2 45388  53.0544 107.3141 0001658  50.8815 309.2323 15.09819939307539
STARLINK-1283,45389,53.0535,0.0001745,15.26659473,484.6091117496817,487.0046281602954,1 45389U 20019AF  25286.66667824  .00056718  00000+0  21307-2 0  9990,2 45389  53.0535  85.8962 0001745  77.4704 189.4150 15.26659473  5850
STARLINK-1284,45390,53.0546,0.0001151,15.06403684,546.4031607124462,547.9973733513161,1 45390U 20019AG  25285.73292739  .00002919  00000+0  21475-3 0  9999,2 45390  53.0546  90.8230 0001151  99.0934 261.0185 15.06403684307707
STARLINK-1292,45394,53.0481,0.0006405,15.83515616,316.217183747699,324.79814756440555,1 45394U 20019AL  25286.66667824  .00365436  00000+0  15706-2 0  9992,2 45394  53.0481  47.3563 0006405 302.0633 109.8299 15.83515616  6058
STARLINK-1297,45395,53.0536,0.0001206,15.0638629,546.4183753287252,548.0887795360031,1 45395U 20019AM  25286.56593101  .00002198  00000+0  16645-3 0  9995,2 45395  53.0536  87.0817 0001206  95.7530 264.3597 15.06386290307016
STARLINK-1307,45397,53.0537,0.0001148,15.06405085,546.4009449641699,547.9910014148145,1 45397U 20019AP  25286.55855891  .00000379  00000+0  44310-4 0  9993,2 45397  53.0537  87.1135 0001148  94.1852 265.9269 15.06405085307655
STARLINK-1312,45398,53.0458,0.0002759,15.84411797,316.1340265437002,319.82894472407315,1 45398U 20019AQ  25286.66667824  .00315257  00000+0  13075-2 0  9999,2 45398  53.0458  46.9102 0002759 255.1442 311.5558 15.84411797  5981
STARLINK-1255,45399,53.0545,0.0001534,15.12691868,526.9353592066618,529.0541604305745,1 45399U 20019AR  25286.66667824  .01997761  00000+0  10313+0 0  9996,2 45399  53.0545  76.5604 0001534  91.5060 347.9261 15.12691868  5752
STARLINK-1259,45403,53.0454,0.0002487,15.99776063,273.38485930732077,276.69414930056064,1 45403U 20019AV  25286.66667824  .00624564  18448-3  12115-2 0  9993,2 45403  53.0454  26.6888 0002487  11.6613 230.1272 15.99776063  6024
STARLINK-1260,45404,53.052,0.0002201,15.06403385,545.6769164860634,548.7254503544045,1 45404U 20019AW  25286.16140154  .00000038  00000+0  21496-4 0  9990,2 45404  53.0520  78.8971 0002201  91.1148 269.0093 15.06403385307625
STARLINK-1263,45405,53.0545,0.0001257,15.06394447,546.3580586827338,548.0990955888255,1 45405U 20019AX  25286.54475539 -.00000591  00000+0 -20786-4 0  9998,2 45405  53.0545  77.1774 0001257  91.1089 269.0044 15.06394447307680
STARLINK-1265,45406,53.0542,0.0001323,15.06397286,546.3036512551871,548.1361006845682,1 45406U 20019AY  25286.15403650  .00001208  00000+0  10001-3 0  9993,2 45406  53.0542  78.9311 0001323  89.7477 270.3663 15.06397286307622
STARLINK-1278,45408,53.0525,0.000192,15.06664159,545.072555439283,547.7315784409875,1 45408U 20019BA  25286.51243116  .00173805  00000+0  11322-1 0  9992,2 45408  53.0525 107.3224 0001920 100.9462 259.1743 15.06664159307268
STARLINK-1296,45412,53.0541,0.0001318,15.06402059,546.2924872988078,548.1180075152233,1 45412U 20019BE  25286.15771581  .00001863  00000+0  14394-3 0  9997,2 45412  53.0541  78.9137 0001318  89.0165 271.0976 15.06402059307625
STARLINK-1298,45413,53.0493,0.0007512,15.48236568,416.7764523897313,426.9928048845959,1 45413U 20019BF  25286.66667824  .00123439  00000+0  22743-2 0  9998,2 45413  53.0493  58.3275 0007512 208.0879 224.6313 15.48236568  5804
STARLINK-1309,45414,53.0529,0.0001488,15.06395898,546.1936362698652,548.2546237421548,1 45414U 20019BG  25285.70803300  .00001126  00000+0  94469-4 0  9998,2 45414  53.0529  80.9339 0001488  89.8933 270.2226 15.06395898307541
STARLINK-1316,45415,53.0547,0.000118,15.06401223,546.3906189344225,548.0250003094934,1 45415U 20019BH  25286.13191293 -.00000148  00000+0  89809-5 0  9995,2 45415  53.0547  79.0285 0001180  91.1289 268.9835 15.06401223307641
STARLINK-1318,45416,53.0524,0.0002328,15.58191273,391.315533320394,394.4681243430987,1 45416U 20019BJ  25286.61296919  .00057037  00000+0  74330-3 0  9999,2 45416  53.0524  51.2462 0002328 332.9737  27.1153 15.58191273308068
STARLINK-1286,45417,53.0519,0.0002487,15.06733546,544.4673960813125,547.9115560705122,1 45417U 20019BK  25286.50132938  .00182981  00000+0  11881-1 0  9995,2 45417  53.0519 107.3708 0002487  80.0420 280.0850 15.06733546307538
STARLINK-1308,45419,53.0528,0.0001259,15.06400589,546.337851582527,548.0816538948666,1 45419U 20019BM  25286.56408928  .00000781  00000+0  71291-4 0  9999,2 45419  53.0528 107.0905 0001259  92.5780 267.5353 15.06400589307298
STARLINK-1329,45531,53.0587,0.0002091,15.06592366,545.1740794703901,548.070013703672,1 45531U 20025A   25286.59902377 -.00044929  00000+0 -30006-2 0  9992,2 45531  53.0587  46.9331 0002091  47.2855 312.8310 15.06592366302924
STARLINK-1338,45532,53.0541,0.0001434,15.06410993,546.1847760296369,548.1709563332588,1 45532U 20025B   25286.61016976  .00004611  00000+0  32816-3 0  9991,2 45532  53.0541  46.8797 0001434  90.3734 269.7419 15.06410993302920
STARLINK-1350,45535,53.0768,8.65e-05,15.31699165,470.15005624293553,471.33491239372324,1 45535U 20025E   25286.60970506  .00016733  00000+0  54976-3 0  9990,2 45535  53.0768   1.6392 0000865  90.3335 269.7764 15.31699165303582
STARLINK-1362,45538,53.0542,0.0001045,15.06411286,546.4532728800405,547.9006634993912,1 45538U 20025H   25286.64234769  .00002893  00000+0  21299-3 0  9995,2 45538  53.0542  46.4560 0001045  82.4721 277.6387 15.06411286302936
STARLINK-1368,45540,53.055,0.0001174,15.06435781,546.2888734508597,547.9149195437576,1 45540U 20025K   25286.51429270  .00003783  00000+0  27249-3 0  9997,2 45540  53.0550  47.3145 0001174  93.4072 266.7051 15.06435781302901
STARLINK-1371,45542,53.0533,0.0001513,15.06417767,546.1093081792769,548.2049021755029,1 45542U 20025M   25286.61751584  .00002377  00000+0  17835-3 0  9994,2 45542  53.0533  46.8487 0001513  90.7082 269.4080 15.06417767302923
STARLINK-1372,45543,53.056,0.0001346,15.06407817,546.255451371565,548.1197487539021,1 45543U 20025N   25286.52169242  .00001828  00000+0  14156-3 0  9992,2 45543  53.0560  47.2804 0001346  89.1648 270.9496 15.06407817302008
STARLINK-1373,45544,53.0534,0.0001378,15.06387857,546.2944565746084,548.2030928941258,1 45544U 20025P   25285.34589798  .00001530  00000+0  12163-3 0  9990,2 45544  53.0534  52.5575 0001378  90.7286 269.3861 15.06387857302734
STARLINK-1294,45551,53.051,0.0007047,15.56695421,392.4541230620216,402.00332351242287,1 45551U 20025W   25286.46979896  .00074243  00000+0  10180-2 0  9991,2 45551  53.0510 347.2706 0007047 347.6435  12.4402 15.56695421303750
STARLINK-1323,45553,53.0287,0.0005102,16.11622775,239.01753298232325,245.7731241704014,1 45553U 20025Y   25286.54552701  .00955905  55559-3  89238-3 0  9991,2 45553  53.0287 322.5188 0005102  44.3452 315.7990 16.11622775302803
STARLINK-1325,45554,53.0597,0.0001702,15.52594372,407.9993235959346,410.3097176295505,1 45554U 20025Z   25286.66667824  .00295692  00000+0  45611-2 0  9991,2 45554  53.0597 339.0670 0001702  63.1978 226.1214 15.52594372  5923
